start=new Date('2022-11-10T00:00:00.000Z').valueOf();
sats=[{"FILE":"3649632","OBJECT_NAME":"STARLINK-4105","PERIAPSIS":"538.117","APOAPSIS":"540.880","REV_AT_EPOCH":"1838","MEAN_MOTION_DDOT":"0.0000000000000","ARG_OF_PERICENTER":"37.1213","ELEMENT_SET_NO":"999","CLASSIFICATION_TYPE":"U","GP_ID":"217243745","RA_OF_ASC_NODE":"224.0037","CENTER_NAME":"EARTH","SEMIMAJOR_AXIS":"6917.634","RCS_SIZE":"LARGE","EPOCH":"2022-11-09T10:57:03.707424","OBJECT_TYPE":"PAYLOAD","COUNTRY_CODE":"US","LAUNCH_DATE":"2022-07-17","MEAN_MOTION":"15.08920661","BSTAR":"0.00127230000000","OBJECT_ID":"2022-083AN","TLE_LINE2":"2 53168  53.2202 224.0037 0001997  37.1213 322.9917 15.08920661 18381","TLE_LINE1":"1 53168U 22083AN  22313.45629291  .00020064  00000-0  12723-2 0  9996","DECAY_DATE":null,"MEAN_MOTION_DOT":"0.00020064","REF_FRAME":"TEME","INCLINATION":"53.2202","ECCENTRICITY":"0.00019970","SITE":"AFETR","PERIOD":"95.432","TIME_SYSTEM":"UTC","MEAN_ELEMENT_THEORY":"SGP4","NORAD_CAT_ID":"53168","MEAN_ANOMALY":"322.9917","EPHEMERIS_TYPE":"0"},{"MEAN_MOTION_DDOT":"0.0000000000000","ARG_OF_PERICENTER":"39.4145","APOAPSIS":"540.979","REV_AT_EPOCH":"1801","FILE":"3650001","PERIAPSIS":"538.537","OBJECT_NAME":"STARLINK-4117","CENTER_NAME":"EARTH","RA_OF_ASC_NODE":"207.0688","GP_ID":"217276939","CLASSIFICATION_TYPE":"U","ELEMENT_SET_NO":"999","LAUNCH_DATE":"2022-07-17","MEAN_MOTION":"15.08835956","BSTAR":"0.00002030000000","OBJECT_TYPE":"PAYLOAD","COUNTRY_CODE":"US","SEMIMAJOR_AXIS":"6917.893","RCS_SIZE":"LARGE","EPOCH":"2022-11-09T21:17:50.863200","MEAN_ELEMENT_THEORY":"SGP4","MEAN_ANOMALY":"320.6975","NORAD_CAT_ID":"53169","EPHEMERIS_TYPE":"0","TIME_SYSTEM":"UTC","ECCENTRICITY":"0.00017650","PERIOD":"95.438","SITE":"AFETR","OBJECT_ID":"2022-083AP","TLE_LINE2":"2 53169  53.2153 207.0688 0001765  39.4145 320.6975 15.08835956 18013","TLE_LINE1":"1 53169U 22083AP  22313.88739425  .00000035  00000-0  20300-4 0  9993","MEAN_MOTION_DOT":"0.00000035","DECAY_DATE":null,"INCLINATION":"53.2153","REF_FRAME":"TEME"},{"PERIOD":"95.439","SITE":"AFETR","ECCENTRICITY":"0.00020780","MEAN_MOTION_DOT":"-0.00002394","TLE_LINE1":"1 53170U 22083AQ  22313.88648193 -.00002394  00000-0 -13244-3 0  9996","DECAY_DATE":null,"INCLINATION":"53.2152","REF_FRAME":"TEME","TLE_LINE2":"2 53170  53.2152 217.0689 0002078  44.5793 315.5366 15.08822040 17881","OBJECT_ID":"2022-083AQ","EPHEMERIS_TYPE":"0","NORAD_CAT_ID":"53170","MEAN_ANOMALY":"315.5366","MEAN_ELEMENT_THEORY":"SGP4","TIME_SYSTEM":"UTC","COUNTRY_CODE":"US","OBJECT_TYPE":"PAYLOAD","EPOCH":"2022-11-09T21:16:32.038752","RCS_SIZE":"LARGE","SEMIMAJOR_AXIS":"6917.935","MEAN_MOTION":"15.08822040","LAUNCH_DATE":"2022-07-17","BSTAR":"-0.00013244000000","CLASSIFICATION_TYPE":"U","ELEMENT_SET_NO":"999","RA_OF_ASC_NODE":"217.0689","CENTER_NAME":"EARTH","GP_ID":"217276859","REV_AT_EPOCH":"1788","APOAPSIS":"541.238","FILE":"3650001","OBJECT_NAME":"STARLINK-4095","PERIAPSIS":"538.363","ARG_OF_PERICENTER":"44.5793","MEAN_MOTION_DDOT":"0.0000000000000"},{"TLE_LINE2":"2 53171  53.2114 196.3540 0000620 100.2511 259.8576 15.65709110 18164","TLE_LINE1":"1 53171U 22083AR  22313.88255219 -.00569735  00000-0 -59260-2 0  9994","DECAY_DATE":null,"MEAN_MOTION_DOT":"-0.00569735","REF_FRAME":"TEME","INCLINATION":"53.2114","OBJECT_ID":"2022-083AR","PERIOD":"91.971","SITE":"AFETR","ECCENTRICITY":"0.00006200","TIME_SYSTEM":"UTC","NORAD_CAT_ID":"53171","MEAN_ANOMALY":"259.8576","EPHEMERIS_TYPE":"0","MEAN_ELEMENT_THEORY":"SGP4","EPOCH":"2022-11-09T21:10:52.509216","SEMIMAJOR_AXIS":"6749.337","RCS_SIZE":"LARGE","COUNTRY_CODE":"US","OBJECT_TYPE":"PAYLOAD","BSTAR":"-0.00592600000000","LAUNCH_DATE":"2022-07-17","MEAN_MOTION":"15.65709110","ELEMENT_SET_NO":"999","CLASSIFICATION_TYPE":"U","GP_ID":"217277108","CENTER_NAME":"EARTH","RA_OF_ASC_NODE":"196.3540","OBJECT_NAME":"STARLINK-4052","FILE":"3650001","PERIAPSIS":"370.784","REV_AT_EPOCH":"1816","APOAPSIS":"371.621","ARG_OF_PERICENTER":"100.2511","MEAN_MOTION_DDOT":"0.0000000000000"},{"LAUNCH_DATE":"2022-07-17","BSTAR":"0.00015970000000","MEAN_MOTION":"15.08858523","OBJECT_TYPE":"PAYLOAD","COUNTRY_CODE":"US","RCS_SIZE":"LARGE","SEMIMAJOR_AXIS":"6917.824","EPOCH":"2022-11-09T21:11:11.532768","MEAN_ELEMENT_THEORY":"SGP4","EPHEMERIS_TYPE":"0","NORAD_CAT_ID":"53172","MEAN_ANOMALY":"282.0770","TIME_SYSTEM":"UTC","ECCENTRICITY":"0.00013390","PERIOD":"95.436","SITE":"AFETR","OBJECT_ID":"2022-083AS","MEAN_MOTION_DOT":"0.00002256","TLE_LINE1":"1 53172U 22083AS  22313.88277237  .00002256  00000-0  15970-3 0  9998","DECAY_DATE":null,"INCLINATION":"53.2140","REF_FRAME":"TEME","TLE_LINE2":"2 53172  53.2140 217.0817 0001339  78.0373 282.0770 15.08858523 17879","MEAN_MOTION_DDOT":"0.0000000000000","ARG_OF_PERICENTER":"78.0373","APOAPSIS":"540.615","REV_AT_EPOCH":"1787","PERIAPSIS":"538.762","FILE":"3650001","OBJECT_NAME":"STARLINK-4299","CENTER_NAME":"EARTH","RA_OF_ASC_NODE":"217.0817","GP_ID":"217277709","CLASSIFICATION_TYPE":"U","ELEMENT_SET_NO":"999"},{"OBJECT_NAME":"STARLINK-4300","FILE":"3650001","PERIAPSIS":"456.172","REV_AT_EPOCH":"130","APOAPSIS":"457.870","ARG_OF_PERICENTER":"97.8322","MEAN_MOTION_DDOT":"0.0000000000000","ELEMENT_SET_NO":"999","CLASSIFICATION_TYPE":"U","GP_ID":"217276521","RA_OF_ASC_NODE":"197.7902","CENTER_NAME":"EARTH","EPOCH":"2022-11-10T00:00:00.999648","RCS_SIZE":"LARGE","SEMIMAJOR_AXIS":"6835.156","COUNTRY_CODE":"US","OBJECT_TYPE":"PAYLOAD","MEAN_MOTION":"15.36314393","LAUNCH_DATE":"2022-07-17","BSTAR":"-0.03298900000000","MEAN_MOTION_DOT":"-0.01086290","TLE_LINE1":"1 53173U 22083AT  22314.00001157 -.01086290  00000-0 -32989-1 0  9990","DECAY_DATE":null,"REF_FRAME":"TEME","INCLINATION":"53.2168","TLE_LINE2":"2 53173  53.2168 197.7902 0001242  97.8322 232.8109 15.36314393  1308","OBJECT_ID":"2022-083AT","PERIOD":"93.731","SITE":"AFETR","ECCENTRICITY":"0.00012420","TIME_SYSTEM":"UTC","EPHEMERIS_TYPE":"0","NORAD_CAT_ID":"53173","MEAN_ANOMALY":"232.8109","MEAN_ELEMENT_THEORY":"SGP4"},{"CLASSIFICATION_TYPE":"U","ELEMENT_SET_NO":"999","CENTER_NAME":"EARTH","RA_OF_ASC_NODE":"235.1776","GP_ID":"217239932","APOAPSIS":"540.897","REV_AT_EPOCH":"1756","PERIAPSIS":"538.425","FILE":"3649526","OBJECT_NAME":"STARLINK-4205","MEAN_MOTION_DDOT":"0.0000000000000","ARG_OF_PERICENTER":"53.0606","ECCENTRICITY":"0.00017870","SITE":"AFETR","PERIOD":"95.436","OBJECT_ID":"2022-083AU","DECAY_DATE":null,"TLE_LINE1":"1 53174U 22083AU  22313.19411342  .00003455  00000-0  23490-3 0  9999","MEAN_MOTION_DOT":"0.00003455","REF_FRAME":"TEME","INCLINATION":"53.2196","TLE_LINE2":"2 53174  53.2196 235.1776 0001787  53.0606 307.0549 15.08867662 17568","MEAN_ELEMENT_THEORY":"SGP4","EPHEMERIS_TYPE":"0","NORAD_CAT_ID":"53174","MEAN_ANOMALY":"307.0549","TIME_SYSTEM":"UTC","OBJECT_TYPE":"PAYLOAD","COUNTRY_CODE":"US","RCS_SIZE":"LARGE","SEMIMAJOR_AXIS":"6917.796","EPOCH":"2022-11-09T04:39:31.399488","LAUNCH_DATE":"2022-07-17","MEAN_MOTION":"15.08867662","BSTAR":"0.00023490000000"},{"INCLINATION":"53.2201","TLE_LINE1":"1 53175U 22083AV  22313.19043223  .00004882  00000-0  32434-3 0  9992","DECAY_DATE":null,"MEAN_MOTION_DOT":"0.00004882","REF_FRAME":"TEME","TLE_LINE2":"2 53175  53.2201 235.1951 0002147  44.7661 315.3504 15.08869038 17562","OBJECT_ID":"2022-083AV","SITE":"AFETR","PERIOD":"95.436","ECCENTRICITY":"0.00021470","TIME_SYSTEM":"UTC","EPHEMERIS_TYPE":"0","NORAD_CAT_ID":"53175","MEAN_ANOMALY":"315.3504","MEAN_ELEMENT_THEORY":"SGP4","EPOCH":"2022-11-09T04:34:13.344672","RCS_SIZE":"LARGE","SEMIMAJOR_AXIS":"6917.792","COUNTRY_CODE":"US","OBJECT_TYPE":"PAYLOAD","MEAN_MOTION":"15.08869038","LAUNCH_DATE":"2022-07-17","BSTAR":"0.00032434000000","ELEMENT_SET_NO":"999","CLASSIFICATION_TYPE":"U","GP_ID":"217240519","RA_OF_ASC_NODE":"235.1951","CENTER_NAME":"EARTH","FILE":"3649526","PERIAPSIS":"538.171","OBJECT_NAME":"STARLINK-4292","REV_AT_EPOCH":"1756","APOAPSIS":"541.142","ARG_OF_PERICENTER":"44.7661","MEAN_MOTION_DDOT":"0.0000000000000"},{"MEAN_MOTION":"15.08836428","LAUNCH_DATE":"2022-07-17","BSTAR":"-0.00006930600000","EPOCH":"2022-11-09T20:46:02.963712","SEMIMAJOR_AXIS":"6917.891","RCS_SIZE":"LARGE","COUNTRY_CODE":"US","OBJECT_TYPE":"PAYLOAD","TIME_SYSTEM":"UTC","NORAD_CAT_ID":"53176","MEAN_ANOMALY":"315.0849","EPHEMERIS_TYPE":"0","MEAN_ELEMENT_THEORY":"SGP4","TLE_LINE2":"2 53176  53.2168 207.1548 0001869  45.0295 315.0849 15.08836428 18010","TLE_LINE1":"1 53176U 22083AW  22313.86531208 -.00001391  00000-0 -69306-4 0  9995","REF_FRAME":"TEME","DECAY_DATE":null,"MEAN_MOTION_DOT":"-0.00001391","INCLINATION":"53.2168","OBJECT_ID":"2022-083AW","PERIOD":"95.438","SITE":"AFETR","ECCENTRICITY":"0.00018690","ARG_OF_PERICENTER":"45.0295","MEAN_MOTION_DDOT":"0.0000000000000","OBJECT_NAME":"STARLINK-4294","FILE":"3650001","PERIAPSIS":"538.463","REV_AT_EPOCH":"1801","APOAPSIS":"541.049","GP_ID":"217277448","RA_OF_ASC_NODE":"207.1548","CENTER_NAME":"EARTH","ELEMENT_SET_NO":"999","CLASSIFICATION_TYPE":"U"},{"FILE":"3650001","PERIAPSIS":"454.379","OBJECT_NAME":"STARLINK-4298","APOAPSIS":"456.168","REV_AT_EPOCH":"130","MEAN_MOTION_DDOT":"0.0000000000000","ARG_OF_PERICENTER":"118.5435","ELEMENT_SET_NO":"999","CLASSIFICATION_TYPE":"U","GP_ID":"217276940","CENTER_NAME":"EARTH","RA_OF_ASC_NODE":"197.8090","SEMIMAJOR_AXIS":"6833.409","RCS_SIZE":"LARGE","EPOCH":"2022-11-10T00:00:00.999648","OBJECT_TYPE":"PAYLOAD","COUNTRY_CODE":"US","MEAN_MOTION":"15.36903755","LAUNCH_DATE":"2022-07-17","BSTAR":"-0.03231100000000","OBJECT_ID":"2022-083AX","TLE_LINE2":"2 53177  53.2170 197.8090 0001309 118.5435 226.1933 15.36903755  1301","INCLINATION":"53.2170","TLE_LINE1":"1 53177U 22083AX  22314.00001157 -.01084675  00000-0 -32311-1 0  9998","DECAY_DATE":null,"MEAN_MOTION_DOT":"-0.01084675","REF_FRAME":"TEME","ECCENTRICITY":"0.00013090","PERIOD":"93.695","SITE":"AFETR","TIME_SYSTEM":"UTC","MEAN_ELEMENT_THEORY":"SGP4","NORAD_CAT_ID":"53177","MEAN_ANOMALY":"226.1933","EPHEMERIS_TYPE":"0"}];
